[{"OBJECT_NAME":"HAIYANG-2C","OBJECT_ID":"2020-066A","EPOCH":"2026-03-09T23:27:23.046048","MEAN_MOTION":13.83375283,"ECCENTRICITY":0.001262,"INCLINATION":65.9957,"RA_OF_ASC_NODE":102.2961,"ARG_OF_PERICENTER":249.7305,"MEAN_ANOMALY":110.2407,"EPHEMERIS_TYPE":0,"CLASSIFICATION_TYPE":"U","NORAD_CAT_ID":46469,"ELEMENT_SET_NO":999,"REV_AT_EPOCH":27577,"BSTAR":0.00017439062,"MEAN_MOTION_DOT":1.11e-6,"MEAN_MOTION_DDOT":0},{"OBJECT_NAME":"SL-8 R\/B","OBJECT_ID":"1972-062B","EPOCH":"2026-03-09T21:26:24.417888","MEAN_MOTION":13.83225565,"ECCENTRICITY":0.00077089,"INCLINATION":82.9744,"RA_OF_ASC_NODE":346.172,"ARG_OF_PERICENTER":315.1656,"MEAN_ANOMALY":44.8882,"EPHEMERIS_TYPE":0,"CLASSIFICATION_TYPE":"U","NORAD_CAT_ID":6149,"ELEMENT_SET_NO":999,"REV_AT_EPOCH":70186,"BSTAR":9.0786005e-5,"MEAN_MOTION_DOT":1.15e-6,"MEAN_MOTION_DDOT":0}]
